*******************************************************************************
JPL/HORIZONS               3753 Cruithne (1986 TO)         2019-Mar-07 18:13:20
Rec #:    3753 (+COV) Soln.date: 2018-Sep-27_06:26:23    # obs: 677 (1973-2018)
 
IAU76/J2000 helio. ecliptic osc. elements (au, days, deg., period=Julian yrs):
 
  EPOCH=  2453905.5 ! 2006-Jun-19.00 (TDB)         Residual RMS= .45365
   EC= .5148046512803501   QR= .4840942114797048   TP= 2453736.2389323311
   OM= 126.2984750532049   W=  43.7425175326044    IN= 19.8096238138409
   A= .997730528038138     MA= 167.3945286394614   ADIST= 1.511366844596571
   PER= .99662             N= .988972398           ANGMOM= .014730745
   DAN= .53451             DDN= 1.16754            L= 168.2985837
   B= 13.5514841           MOID= .0715464          TP= 2005-Dec-31.7389323311
 
Asteroid physical parameters (km, seconds, rotational period in hours):
   GM= n.a.                RAD= 1.0355             ROTPER= 27.3099
   H= 15.6                 G= .150                 B-V= n.a.
                           ALBEDO= .365            STYP= Q
 
ASTEROID comments: 
1: soln ref.= JPL#144, OCC=0
2: source=ORB
*******************************************************************************
 
  
*******************************************************************************
Ephemeris / WWW_USER Thu Mar  7 18:13:20 2019 Pasadena, USA      / Horizons    
*******************************************************************************
Target body name: 3753 Cruithne (1986 TO)         {source: JPL#144}
Center body name: Earth-Moon Barycenter (3)       {source: DE431}
Center-site name: BODY CENTER
*******************************************************************************
Start time      : A.D. 2019-Feb-28 00:00:00.0000 TDB
Stop  time      : A.D. 2121-Feb-28 00:00:00.0000 TDB
Step-size       : 7200 minutes
*******************************************************************************
Center geodetic : 0.00000000,0.00000000,0.0000000 {E-lon(deg),Lat(deg),Alt(km)}
Center cylindric: 0.00000000,0.00000000,0.0000000 {E-lon(deg),Dxy(km),Dz(km)}
Center radii    : (undefined)                                                  
Small perturbers: Yes                             {source: SB431-N16}
Output units    : AU-D                                                         
Output type     : GEOMETRIC cartesian states
Output format   : 3 (position, velocity, LT, range, range-rate)
Reference frame : ICRF/J2000.0                                                 
Coordinate systm: Ecliptic and Mean Equinox of Reference Epoch                 
*******************************************************************************
Initial IAU76/J2000 heliocentric ecliptic osculating elements (au, days, deg.):
  EPOCH=  2453905.5 ! 2006-Jun-19.00 (TDB)         Residual RMS= .45365        
   EC= .5148046512803501   QR= .4840942114797048   TP= 2453736.2389323311      
   OM= 126.2984750532049   W=  43.7425175326044    IN= 19.8096238138409        
  Equivalent ICRF heliocentric equatorial cartesian coordinates (au, au/d):
   X= 1.411566672652874E+00  Y=-2.528002974852009E-01  Z=-4.598316673859464E-01
  VX= 2.914203775890965E-03 VY= 9.318915208005769E-03 VZ= 1.035231207835076E-03
Asteroid physical parameters (km, seconds, rotational period in hours):        
   GM= n.a.                RAD= 1.0355             ROTPER= 27.3099             
   H= 15.6                 G= .150                 B-V= n.a.                   
                           ALBEDO= .365            STYP= Q                     
*******************************************************************************
JDTDB
   X     Y     Z
   VX    VY    VZ
   LT    RG    RR
*******************************************************************************
$$SOE
2476287.500000000 = A.D. 2067-Sep-29 00:00:00.0000 TDB 
 X =-1.048871022200169E+00 Y = 5.578684519496355E-01 Z =-1.217031361073234E-01
 VX=-1.889913282388909E-02 VY=-2.743622922879893E-02 VZ= 8.210478785404056E-03
 LT= 6.897234365283870E-03 RG= 1.194219110645223E+00 RR= 2.945611059143925E-03
2476292.500000000 = A.D. 2067-Oct-04 00:00:00.0000 TDB 
 X =-1.138497322588164E+00 Y = 4.123455232843959E-01 Z =-7.914816899525708E-02
 VX=-1.683086307587574E-02 VY=-3.083215942808869E-02 VZ= 8.792807932038830E-03
 LT= 7.008322981444712E-03 RG= 1.213453508284682E+00 RR= 4.740564799514319E-03
2476297.500000000 = A.D. 2067-Oct-09 00:00:00.0000 TDB 
 X =-1.215722783100908E+00 Y = 2.490432149863446E-01 Z =-3.405673191761933E-02
 VX=-1.388700445743220E-02 VY=-3.452413250542399E-02 VZ= 9.204398964811317E-03
 LT= 7.169938532046534E-03 RG= 1.241436373428079E+00 RR= 6.421009708407137E-03
2476302.500000000 = A.D. 2067-Oct-14 00:00:00.0000 TDB 
 X =-1.275384291002873E+00 Y = 6.702065382050326E-02 Z = 1.236647637425237E-02
 VX=-9.756629525030720E-03 VY=-3.825663673656782E-02 VZ= 9.297316396480666E-03
 LT= 7.376514504282328E-03 RG= 1.277203894260170E+00 RR= 7.825251951373921E-03
2476307.500000000 = A.D. 2067-Oct-19 00:00:00.0000 TDB 
 X =-1.310966472650779E+00 Y =-1.327258656378588E-01 Z = 5.809597354178025E-02
 VX=-4.245133645499471E-03 VY=-4.150232551387749E-02 VZ= 8.899787541142824E-03
 LT= 7.617609585440051E-03 RG= 1.318948213526790E+00 RR= 8.787836901882605E-03
2476312.500000000 = A.D. 2067-Oct-24 00:00:00.0000 TDB 
 X =-1.315785883913079E+00 Y =-3.459508018113543E-01 Z = 1.003516426319131E-01
 VX= 2.477394361184521E-03 VY=-4.352031214730927E-02 VZ= 7.900816445629223E-03
 LT= 7.878969012281427E-03 RG= 1.364201195483190E+00 RR= 9.228130207804724E-03
2476317.500000000 = A.D. 2067-Oct-29 00:00:00.0000 TDB 
 X =-1.285286853702047E+00 Y =-5.648135766193497E-01 Z = 1.361927798240193E-01
 VX= 9.733358820242156E-03 VY=-4.368843389709764E-02 VZ= 6.362025555160395E-03
 LT= 8.146399103278379E-03 RG= 1.410505280354896E+00 RR= 9.239330472187515E-03
2476322.500000000 = A.D. 2067-Nov-03 00:00:00.0000 TDB 
 X =-1.219140545317684E+00 Y =-7.795559471010038E-01 Z = 1.634828692225386E-01
 VX= 1.658546324866563E-02 VY=-4.190948048628274E-02 VZ= 4.531492500898785E-03
 LT= 8.410744776110621E-03 RG= 1.456275314776459E+00 RR= 9.058448842554776E-03
2476327.500000000 = A.D. 2067-Nov-08 00:00:00.0000 TDB 
 X =-1.121311430805250E+00 Y =-9.814174867113354E-01 Z = 1.815249594088300E-01
 VX= 2.232743276149279E-02 VY=-3.864227999336963E-02 VZ= 2.707580736765543E-03
 LT= 8.669957040835405E-03 RG= 1.501156527136890E+00 RR= 8.912926118868651E-03
2476332.500000000 = A.D. 2067-Nov-13 00:00:00.0000 TDB 
 X =-9.981295856603053E-01 Y =-1.164605590401851E+00 Z = 1.909170583302633E-01
 VX= 2.672320758660400E-02 VY=-3.454594702067158E-02 VZ= 1.094148975672628E-03
 LT= 8.926900486035359E-03 RG= 1.545644905574090E+00 RR= 8.907654380529016E-03
2476337.500000000 = A.D. 2067-Nov-18 00:00:00.0000 TDB 
 X =-8.561437773655557E-01 Y =-1.326400868375251E+00 Z = 1.929496165141675E-01
 VX= 2.988422856882715E-02 VY=-3.015626588035418E-02 VZ=-2.321433743722886E-04
 LT= 9.185709050189832E-03 RG= 1.590456219347564E+00 RR= 9.034708890583944E-03
2476342.500000000 = A.D. 2067-Nov-23 00:00:00.0000 TDB 
 X =-7.009412377620576E-01 Y =-1.466223317065684E+00 Z = 1.890646940998950E-01
 VX= 3.205240482502934E-02 VY=-2.579397416223156E-02 VZ=-1.278046646655797E-03
 LT= 9.449416763215169E-03 RG= 1.636115794452700E+00 RR= 9.236045882624454E-03
2476347.500000000 = A.D. 2067-Nov-28 00:00:00.0000 TDB 
 X =-5.368741504679644E-01 Y =-1.584645457576300E+00 Z = 1.805679205539843E-01
 VX= 3.346610289883773E-02 VY=-2.161141141048783E-02 VZ=-2.084825273616791E-03
 LT= 9.719255058614977E-03 RG= 1.682836846991143E+00 RR= 9.450046701921006E-03
2476352.500000000 = A.D. 2067-Dec-03 00:00:00.0000 TDB 
 X =-3.672207083444810E-01 Y =-1.682729399397096E+00 Z = 1.685356008005191E-01
 VX= 3.431369891047647E-02 VY=-1.766251738466923E-02 VZ=-2.699898578940870E-03
 LT= 9.994873687082706E-03 RG= 1.730558733175365E+00 RR= 9.630131068154704E-03
2476357.500000000 = A.D. 2067-Dec-08 00:00:00.0000 TDB 
 X =-1.944523344672968E-01 Y =-1.761670846928365E+00 Z = 1.538178333773482E-01
 VX= 3.473079557053443E-02 VY=-1.395315329974779E-02 VZ=-3.165347021651800E-03
 LT= 1.027483347374170E-02 RG= 1.779032267599996E+00 RR= 9.747148834420181E-03
2476362.500000000 = A.D. 2067-Dec-13 00:00:00.0000 TDB 
 X =-2.047239927294272E-02 Y =-1.822637438368937E+00 Z = 1.370746400967739E-01
 VX= 3.481112185112886E-02 VY=-1.046953776752514E-02 VZ=-3.515028910734520E-03
 LT= 1.055706584706976E-02 RG= 1.827899288208661E+00 RR= 9.785923712730750E-03
2476367.500000000 = A.D. 2067-Dec-18 00:00:00.0000 TDB 
 X = 1.532052324854644E-01 Y =-1.866710220756508E+00 Z = 1.188166046505119E-01
 VX= 3.461859581088834E-02 VY=-7.192359907125998E-03 VZ=-3.775064575086814E-03
 LT= 1.083921282155462E-02 RG= 1.876751522465990E+00 RR= 9.740906665337178E-03
2476372.500000000 = A.D. 2067-Dec-23 00:00:00.0000 TDB 
 X = 3.253324249020159E-01 Y =-1.894874009296763E+00 Z = 9.944011486609941E-02
 VX= 3.419695469843113E-02 VY=-4.103077503656795E-03 VZ=-3.965267420584334E-03
 LT= 1.111885088414493E-02 RG= 1.925169352094926E+00 RR= 9.612601846273468E-03
2476377.500000000 = A.D. 2067-Dec-28 00:00:00.0000 TDB 
 X = 4.948441164440910E-01 Y =-1.908028322843047E+00 Z = 7.925517655538163E-02
 VX= 3.357663503651242E-02 VY=-1.186319091244128E-03 VZ=-4.100602526055730E-03
 LT= 1.139362685520640E-02 RG= 1.972745336672073E+00 RR= 9.405033889445252E-03
2476382.500000000 = A.D. 2068-Jan-02 00:00:00.0000 TDB 
 X = 6.608043288776193E-01 Y =-1.907005169985176E+00 Z = 5.850650638090999E-02
 VX= 3.277946974594619E-02 VY= 1.569538526474532E-03 VZ=-4.192398350926365E-03
 LT= 1.166133373203025E-02 RG= 2.019097345524106E+00 RR= 9.124084523178139E-03
2476387.500000000 = A.D. 2068-Jan-07 00:00:00.0000 TDB 
 X = 8.223715469710068E-01 Y =-1.892587459741671E+00 Z = 3.738927544708857E-02
 VX= 3.182183479762370E-02 VY= 4.172581726343678E-03 VZ=-4.249278404715785E-03
 LT= 1.191994817100138E-02 RG= 2.063875047564018E+00 RR= 8.776460687678905E-03
